{
  "norad_id": 52150,
  "name": "TK-2",
  "history": [
    {
      "epoch": "2026-03-28T22:13:15.358944Z",
      "apogee_km": 569.1657837271396,
      "perigee_km": 545.5662089714024,
      "latitude_deg": 3.603811152827106e-05,
      "longitude_deg": 123.4805822375188,
      "height_km": 551.716689389167,
      "semi_major_axis_km": 6935.502996349271,
      "eccentricity": 0.00170136,
      "inclination_deg": 97.8374,
      "raan_deg": 283.1339,
      "arg_perigee_deg": 42.6708,
      "mean_anomaly_deg": 317.5835,
      "mean_motion_rev_day": 15.03092876
    },
    {
      "epoch": "2026-03-29T04:36:42.211872Z",
      "apogee_km": 569.1422518584368,
      "perigee_km": 545.575436979102,
      "latitude_deg": -5.975160803571925e-05,
      "longitude_deg": 27.625647698159106,
      "height_km": 551.6057084771656,
      "semi_major_axis_km": 6935.49584441877,
      "eccentricity": 0.001699,
      "inclination_deg": 97.8373,
      "raan_deg": 283.4033,
      "arg_perigee_deg": 41.8283,
      "mean_anomaly_deg": 318.4236,
      "mean_motion_rev_day": 15.03095201
    },
    {
      "epoch": "2026-03-30T04:34:37.540992Z",
      "apogee_km": 569.0408519254679,
      "perigee_km": 545.611470274639,
      "latitude_deg": 5.0023969176055164e-05,
      "longitude_deg": 28.171372561782373,
      "height_km": 551.2041959161315,
      "semi_major_axis_km": 6935.463161100053,
      "eccentricity": 0.0016891,
      "inclination_deg": 97.8369,
      "raan_deg": 284.4138,
      "arg_perigee_deg": 38.6298,
      "mean_anomaly_deg": 321.6132,
      "mean_motion_rev_day": 15.03105826
    },
    {
      "epoch": "2026-03-30T06:10:29.221824Z",
      "apogee_km": 569.0367632421112,
      "perigee_km": 545.6147345742629,
      "latitude_deg": -4.127604304561627e-05,
      "longitude_deg": 4.207833575679684,
      "height_km": 551.1793459450662,
      "semi_major_axis_km": 6935.462748908187,
      "eccentricity": 0.00168857,
      "inclination_deg": 97.8369,
      "raan_deg": 284.4812,
      "arg_perigee_deg": 38.4139,
      "mean_anomaly_deg": 321.8284,
      "mean_motion_rev_day": 15.0310596
    },
    {
      "epoch": "2026-03-30T14:09:47.536128Z",
      "apogee_km": 569.002806256346,
      "perigee_km": 545.6297738326339,
      "latitude_deg": 4.82029586189016e-05,
      "longitude_deg": -115.60976066601155,
      "height_km": 551.0516594827119,
      "semi_major_axis_km": 6935.45329004449,
      "eccentricity": 0.00168504,
      "inclination_deg": 97.8368,
      "raan_deg": 284.818,
      "arg_perigee_deg": 37.31,
      "mean_anomaly_deg": 322.9292,
      "mean_motion_rev_day": 15.03109035
    },
    {
      "epoch": "2026-03-30T22:09:05.778720Z",
      "apogee_km": 568.970367926745,
      "perigee_km": 545.6409259509728,
      "latitude_deg": 5.256040519340406e-05,
      "longitude_deg": 124.57295636235527,
      "height_km": 550.9285950002924,
      "semi_major_axis_km": 6935.442646938859,
      "eccentricity": 0.0016819,
      "inclination_deg": 97.8366,
      "raan_deg": 285.1548,
      "arg_perigee_deg": 36.2391,
      "mean_anomaly_deg": 323.997,
      "mean_motion_rev_day": 15.03112495
    }
  ]
}